STARLINK-32668          
1 62212U 24229W   25208.39956516  .00014850  00000+0  54818-3 0  9999
2 62212  43.0002  99.7923 0001509 276.3015  83.7664 15.27572561 36141
STARLINK-32669          
1 62213U 24229X   25208.40549991  .00011140  00000+0  41356-3 0  9999
2 62213  42.9967 103.2892 0000521  22.8072 337.2802 15.27591627 36107
STARLINK-32666          
1 62214U 24229Y   25208.41194086  .00017290  00000+0  63663-3 0  9999
2 62214  42.9961 103.3408 0001475  73.7123 286.3891 15.27564640 36104
STARLINK-32662          
1 62215U 24229Z   25208.72473151  .00023751  00000+0  86924-3 0  9991
2 62215  42.9966 101.3888 0000267 112.5992 247.4888 15.27602124 37176
STARLINK-11394 [DTC]    
1 62218U 24231A   25208.25121753  .00188745  00000+0  15232-2 0  9991
2 62218  53.1578 132.6136 0001767  81.9202 278.2017 15.69779224 38005
STARLINK-11490 [DTC]    
1 62219U 24231B   25208.76548008  .00260037  00000+0  20783-2 0  9996
2 62219  53.1575 130.1350 0001676  94.6450 265.4760 15.69783655 38094
STARLINK-11466 [DTC]    
1 62220U 24231C   25208.52061105  .00245662  00000+0  19663-2 0  9992
2 62220  53.1570 131.4542 0001963  80.9515 279.1725 15.69793373 38043
STARLINK-11468 [DTC]    
1 62221U 24231D   25208.21207399  .00113631  00000+0  92831-3 0  9995
2 62221  53.1572 133.0883 0001057  92.5273 267.5866 15.69753481 37992
STARLINK-11488 [DTC]    
1 62222U 24231E   25208.77038578  .00201864  00000+0  16287-2 0  9994
2 62222  53.1576 130.1650 0001873  74.1954 285.9270 15.69741402 37820
STARLINK-11483 [DTC]    
1 62223U 24231F   25208.79971502  .00308681  00000+0  24374-2 0  9991
2 62223  53.1567 129.6240 0002046 129.6367 230.4831 15.69924315 38113
STARLINK-11492 [DTC]    
1 62224U 24231G   25208.78019733  .00287705  00000+0  22817-2 0  9993
2 62224  53.1567 130.2403 0001417 142.5819 217.5298 15.69883950 38055
STARLINK-11471 [DTC]    
1 62225U 24231H   25208.80462538  .00242727  00000+0  19457-2 0  9993
2 62225  53.1570 129.6676 0001700 100.3280 259.7929 15.69766898 37782
STARLINK-11475 [DTC]    
1 62226U 24231J   25208.80952597  .00288469  00000+0  22967-2 0  9996
2 62226  53.1560 129.6868 0001453 117.4194 242.6971 15.69787401 38044
STARLINK-11469 [DTC]    
1 62227U 24231K   25208.50099764  .00179311  00000+0  14506-2 0  9997
2 62227  53.1574 131.3208 0003113  69.8488 290.2865 15.69749444 38045
STARLINK-11476 [DTC]    
1 62228U 24231L   25208.79481062  .00298197  00000+0  23598-2 0  9990
2 62228  53.1576 129.5897 0001306 116.0202 244.0951 15.69903588 38057
STARLINK-11485 [DTC]    
1 62229U 24231M   25208.87810177  .00259757  00000+0  20698-2 0  9990
2 62229  53.1568 129.4049 0001335 147.6786 212.4314 15.69857420 37847
