[{"OBJECT_NAME":"STARLINK-32668","OBJECT_ID":"2024-229W","EPOCH":"2025-07-27T09:35:22.429824","MEAN_MOTION":15.27572561,"ECCENTRICITY":0.0001509,"INCLINATION":43.0002,"RA_OF_ASC_NODE":99.7923,"ARG_OF_PERICENTER":276.3015,"MEAN_ANOMALY":83.7664,"EPHEMERIS_TYPE":0,"CLASSIFICATION_TYPE":"U","NORAD_CAT_ID":62212,"ELEMENT_SET_NO":999,"REV_AT_EPOCH":3614,"BSTAR":0.00054818,"MEAN_MOTION_DOT":0.0001485,"MEAN_MOTION_DDOT":0},{"OBJECT_NAME":"STARLINK-32669","OBJECT_ID":"2024-229X","EPOCH":"2025-07-27T09:43:55.192224","MEAN_MOTION":15.27591627,"ECCENTRICITY":5.21e-5,"INCLINATION":42.9967,"RA_OF_ASC_NODE":103.2892,"ARG_OF_PERICENTER":22.8072,"MEAN_ANOMALY":337.2802,"EPHEMERIS_TYPE":0,"CLASSIFICATION_TYPE":"U","NORAD_CAT_ID":62213,"ELEMENT_SET_NO":999,"REV_AT_EPOCH":3610,"BSTAR":0.00041356,"MEAN_MOTION_DOT":0.0001114,"MEAN_MOTION_DDOT":0},{"OBJECT_NAME":"STARLINK-32666","OBJECT_ID":"2024-229Y","EPOCH":"2025-07-27T09:53:11.690304","MEAN_MOTION":15.2756464,"ECCENTRICITY":0.0001475,"INCLINATION":42.9961,"RA_OF_ASC_NODE":103.3408,"ARG_OF_PERICENTER":73.7123,"MEAN_ANOMALY":286.3891,"EPHEMERIS_TYPE":0,"CLASSIFICATION_TYPE":"U","NORAD_CAT_ID":62214,"ELEMENT_SET_NO":999,"REV_AT_EPOCH":3610,"BSTAR":0.00063663,"MEAN_MOTION_DOT":0.0001729,"MEAN_MOTION_DDOT":0},{"OBJECT_NAME":"STARLINK-32662","OBJECT_ID":"2024-229Z","EPOCH":"2025-07-27T17:23:36.802464","MEAN_MOTION":15.27602124,"ECCENTRICITY":2.67e-5,"INCLINATION":42.9966,"RA_OF_ASC_NODE":101.3888,"ARG_OF_PERICENTER":112.5992,"MEAN_ANOMALY":247.4888,"EPHEMERIS_TYPE":0,"CLASSIFICATION_TYPE":"U","NORAD_CAT_ID":62215,"ELEMENT_SET_NO":999,"REV_AT_EPOCH":3717,"BSTAR":0.00086924,"MEAN_MOTION_DOT":0.00023751,"MEAN_MOTION_DDOT":0},{"OBJECT_NAME":"STARLINK-11394 [DTC]","OBJECT_ID":"2024-231A","EPOCH":"2025-07-27T06:01:45.194592","MEAN_MOTION":15.69779224,"ECCENTRICITY":0.0001767,"INCLINATION":53.1578,"RA_OF_ASC_NODE":132.6136,"ARG_OF_PERICENTER":81.9202,"MEAN_ANOMALY":278.2017,"EPHEMERIS_TYPE":0,"CLASSIFICATION_TYPE":"U","NORAD_CAT_ID":62218,"ELEMENT_SET_NO":999,"REV_AT_EPOCH":3800,"BSTAR":0.0015232,"MEAN_MOTION_DOT":0.00188745,"MEAN_MOTION_DDOT":0},{"OBJECT_NAME":"STARLINK-11490 [DTC]","OBJECT_ID":"2024-231B","EPOCH":"2025-07-27T18:22:17.478912","MEAN_MOTION":15.69783655,"ECCENTRICITY":0.0001676,"INCLINATION":53.1575,"RA_OF_ASC_NODE":130.135,"ARG_OF_PERICENTER":94.645,"MEAN_ANOMALY":265.476,"EPHEMERIS_TYPE":0,"CLASSIFICATION_TYPE":"U","NORAD_CAT_ID":62219,"ELEMENT_SET_NO":999,"REV_AT_EPOCH":3809,"BSTAR":0.0020783,"MEAN_MOTION_DOT":0.00260037,"MEAN_MOTION_DDOT":0},{"OBJECT_NAME":"STARLINK-11466 [DTC]","OBJECT_ID":"2024-231C","EPOCH":"2025-07-27T12:29:40.794720","MEAN_MOTION":15.69793373,"ECCENTRICITY":0.0001963,"INCLINATION":53.157,"RA_OF_ASC_NODE":131.4542,"ARG_OF_PERICENTER":80.9515,"MEAN_ANOMALY":279.1725,"EPHEMERIS_TYPE":0,"CLASSIFICATION_TYPE":"U","NORAD_CAT_ID":62220,"ELEMENT_SET_NO":999,"REV_AT_EPOCH":3804,"BSTAR":0.0019663,"MEAN_MOTION_DOT":0.00245662,"MEAN_MOTION_DDOT":0},{"OBJECT_NAME":"STARLINK-11468 [DTC]","OBJECT_ID":"2024-231D","EPOCH":"2025-07-27T05:05:23.192736","MEAN_MOTION":15.69753481,"ECCENTRICITY":0.0001057,"INCLINATION":53.1572,"RA_OF_ASC_NODE":133.0883,"ARG_OF_PERICENTER":92.5273,"MEAN_ANOMALY":267.5866,"EPHEMERIS_TYPE":0,"CLASSIFICATION_TYPE":"U","NORAD_CAT_ID":62221,"ELEMENT_SET_NO":999,"REV_AT_EPOCH":3799,"BSTAR":0.00092831,"MEAN_MOTION_DOT":0.00113631,"MEAN_MOTION_DDOT":0},{"OBJECT_NAME":"STARLINK-11488 [DTC]","OBJECT_ID":"2024-231E","EPOCH":"2025-07-27T18:29:21.331392","MEAN_MOTION":15.69741402,"ECCENTRICITY":0.0001873,"INCLINATION":53.1576,"RA_OF_ASC_NODE":130.165,"ARG_OF_PERICENTER":74.1954,"MEAN_ANOMALY":285.927,"EPHEMERIS_TYPE":0,"CLASSIFICATION_TYPE":"U","NORAD_CAT_ID":62222,"ELEMENT_SET_NO":999,"REV_AT_EPOCH":3782,"BSTAR":0.0016287,"MEAN_MOTION_DOT":0.00201864,"MEAN_MOTION_DDOT":0},{"OBJECT_NAME":"STARLINK-11483 [DTC]","OBJECT_ID":"2024-231F","EPOCH":"2025-07-27T19:11:35.377728","MEAN_MOTION":15.69924315,"ECCENTRICITY":0.0002046,"INCLINATION":53.1567,"RA_OF_ASC_NODE":129.624,"ARG_OF_PERICENTER":129.6367,"MEAN_ANOMALY":230.4831,"EPHEMERIS_TYPE":0,"CLASSIFICATION_TYPE":"U","NORAD_CAT_ID":62223,"ELEMENT_SET_NO":999,"REV_AT_EPOCH":3811,"BSTAR":0.0024374,"MEAN_MOTION_DOT":0.00308681,"MEAN_MOTION_DDOT":0},{"OBJECT_NAME":"STARLINK-11492 [DTC]","OBJECT_ID":"2024-231G","EPOCH":"2025-07-27T18:43:29.049312","MEAN_MOTION":15.6988395,"ECCENTRICITY":0.0001417,"INCLINATION":53.1567,"RA_OF_ASC_NODE":130.2403,"ARG_OF_PERICENTER":142.5819,"MEAN_ANOMALY":217.5298,"EPHEMERIS_TYPE":0,"CLASSIFICATION_TYPE":"U","NORAD_CAT_ID":62224,"ELEMENT_SET_NO":999,"REV_AT_EPOCH":3805,"BSTAR":0.0022817,"MEAN_MOTION_DOT":0.00287705,"MEAN_MOTION_DDOT":0},{"OBJECT_NAME":"STARLINK-11471 [DTC]","OBJECT_ID":"2024-231H","EPOCH":"2025-07-27T19:18:39.632832","MEAN_MOTION":15.69766898,"ECCENTRICITY":0.00017,"INCLINATION":53.157,"RA_OF_ASC_NODE":129.6676,"ARG_OF_PERICENTER":100.328,"MEAN_ANOMALY":259.7929,"EPHEMERIS_TYPE":0,"CLASSIFICATION_TYPE":"U","NORAD_CAT_ID":62225,"ELEMENT_SET_NO":999,"REV_AT_EPOCH":3778,"BSTAR":0.0019457,"MEAN_MOTION_DOT":0.00242727,"MEAN_MOTION_DDOT":0},{"OBJECT_NAME":"STARLINK-11475 [DTC]","OBJECT_ID":"2024-231J","EPOCH":"2025-07-27T19:25:43.043808","MEAN_MOTION":15.69787401,"ECCENTRICITY":0.0001453,"INCLINATION":53.156,"RA_OF_ASC_NODE":129.6868,"ARG_OF_PERICENTER":117.4194,"MEAN_ANOMALY":242.6971,"EPHEMERIS_TYPE":0,"CLASSIFICATION_TYPE":"U","NORAD_CAT_ID":62226,"ELEMENT_SET_NO":999,"REV_AT_EPOCH":3804,"BSTAR":0.0022967,"MEAN_MOTION_DOT":0.00288469,"MEAN_MOTION_DDOT":0},{"OBJECT_NAME":"STARLINK-11469 [DTC]","OBJECT_ID":"2024-231K","EPOCH":"2025-07-27T12:01:26.196096","MEAN_MOTION":15.69749444,"ECCENTRICITY":0.0003113,"INCLINATION":53.1574,"RA_OF_ASC_NODE":131.3208,"ARG_OF_PERICENTER":69.8488,"MEAN_ANOMALY":290.2865,"EPHEMERIS_TYPE":0,"CLASSIFICATION_TYPE":"U","NORAD_CAT_ID":62227,"ELEMENT_SET_NO":999,"REV_AT_EPOCH":3804,"BSTAR":0.0014506,"MEAN_MOTION_DOT":0.00179311,"MEAN_MOTION_DDOT":0},{"OBJECT_NAME":"STARLINK-11476 [DTC]","OBJECT_ID":"2024-231L","EPOCH":"2025-07-27T19:04:31.637568","MEAN_MOTION":15.69903588,"ECCENTRICITY":0.0001306,"INCLINATION":53.1576,"RA_OF_ASC_NODE":129.5897,"ARG_OF_PERICENTER":116.0202,"MEAN_ANOMALY":244.0951,"EPHEMERIS_TYPE":0,"CLASSIFICATION_TYPE":"U","NORAD_CAT_ID":62228,"ELEMENT_SET_NO":999,"REV_AT_EPOCH":3805,"BSTAR":0.0023598,"MEAN_MOTION_DOT":0.00298197,"MEAN_MOTION_DDOT":0},{"OBJECT_NAME":"STARLINK-11485 [DTC]","OBJECT_ID":"2024-231M","EPOCH":"2025-07-27T21:04:27.992928","MEAN_MOTION":15.6985742,"ECCENTRICITY":0.0001335,"INCLINATION":53.1568,"RA_OF_ASC_NODE":129.4049,"ARG_OF_PERICENTER":147.6786,"MEAN_ANOMALY":212.4314,"EPHEMERIS_TYPE":0,"CLASSIFICATION_TYPE":"U","NORAD_CAT_ID":62229,"ELEMENT_SET_NO":999,"REV_AT_EPOCH":3784,"BSTAR":0.0020698,"MEAN_MOTION_DOT":0.00259757,"MEAN_MOTION_DDOT":0}]
